CCSDS_OMM_VERS = 2.0
CREATION_DATE  = 
ORIGINATOR     = 

OBJECT_NAME    = SL-14 R/B
OBJECT_ID      = 1986-046B
CENTER_NAME    = EARTH
REF_FRAME      = TEME
TIME_SYSTEM    = UTC
MEAN_ELEMENT_THEORY = SGP/SGP4

EPOCH          = 2026-03-07T02:42:53.824608
MEAN_MOTION    = 14.85587022
ECCENTRICITY   = .00218175
INCLINATION    = 82.4782
RA_OF_ASC_NODE = 82.6170
ARG_OF_PERICENTER = 234.3727
MEAN_ANOMALY   = 125.5457

EPHEMERIS_TYPE = 0
CLASSIFICATION_TYPE = U
NORAD_CAT_ID   = 16792
ELEMENT_SET_NO = 999
REV_AT_EPOCH   = 12602
BSTAR          = .60110043E-4
MEAN_MOTION_DOT = .546E-5
MEAN_MOTION_DDOT = 0

CCSDS_OMM_VERS = 2.0
CREATION_DATE  = 
ORIGINATOR     = 

OBJECT_NAME    = SL-14 R/B
OBJECT_ID      = 1986-055B
CENTER_NAME    = EARTH
REF_FRAME      = TEME
TIME_SYSTEM    = UTC
MEAN_ELEMENT_THEORY = SGP/SGP4

EPOCH          = 2026-03-07T05:50:48.853536
MEAN_MOTION    = 14.85640378
ECCENTRICITY   = .00183884
INCLINATION    = 82.5206
RA_OF_ASC_NODE = 128.9733
ARG_OF_PERICENTER = 344.9028
MEAN_ANOMALY   = 77.0732

EPHEMERIS_TYPE = 0
CLASSIFICATION_TYPE = U
NORAD_CAT_ID   = 16882
ELEMENT_SET_NO = 999
REV_AT_EPOCH   = 11900
BSTAR          = .69710461E-4
MEAN_MOTION_DOT = .629E-5
MEAN_MOTION_DDOT = 0

CCSDS_OMM_VERS = 2.0
CREATION_DATE  = 
ORIGINATOR     = 

OBJECT_NAME    = AJISAI (EGS)
OBJECT_ID      = 1986-061A
CENTER_NAME    = EARTH
REF_FRAME      = TEME
TIME_SYSTEM    = UTC
MEAN_ELEMENT_THEORY = SGP/SGP4

EPOCH          = 2026-03-07T07:27:10.011456
MEAN_MOTION    = 12.44515649
ECCENTRICITY   = .00112587
INCLINATION    = 50.0080
RA_OF_ASC_NODE = 100.6640
ARG_OF_PERICENTER = 280.8734
MEAN_ANOMALY   = 167.4995

EPHEMERIS_TYPE = 0
CLASSIFICATION_TYPE = U
NORAD_CAT_ID   = 16908
ELEMENT_SET_NO = 999
REV_AT_EPOCH   = 46770
BSTAR          = .590034E-4
MEAN_MOTION_DOT = -.89E-6
MEAN_MOTION_DDOT = 0

CCSDS_OMM_VERS = 2.0
CREATION_DATE  = 
ORIGINATOR     = 

OBJECT_NAME    = SL-14 R/B
OBJECT_ID      = 1987-024B
CENTER_NAME    = EARTH
REF_FRAME      = TEME
TIME_SYSTEM    = UTC
MEAN_ELEMENT_THEORY = SGP/SGP4

EPOCH          = 2026-03-07T03:32:20.951808
MEAN_MOTION    = 14.86128858
ECCENTRICITY   = .00166736
INCLINATION    = 82.5248
RA_OF_ASC_NODE = 95.1538
ARG_OF_PERICENTER = 269.1323
MEAN_ANOMALY   = 90.7983

EPHEMERIS_TYPE = 0
CLASSIFICATION_TYPE = U
NORAD_CAT_ID   = 17567
ELEMENT_SET_NO = 999
REV_AT_EPOCH   = 8775
BSTAR          = .56950543E-4
MEAN_MOTION_DOT = .524E-5
MEAN_MOTION_DDOT = 0

CCSDS_OMM_VERS = 2.0
CREATION_DATE  = 
ORIGINATOR     = 

OBJECT_NAME    = COSMOS 1833
OBJECT_ID      = 1987-027A
CENTER_NAME    = EARTH
REF_FRAME      = TEME
TIME_SYSTEM    = UTC
MEAN_ELEMENT_THEORY = SGP/SGP4

EPOCH          = 2026-03-07T04:05:11.415264
MEAN_MOTION    = 14.13055413
ECCENTRICITY   = .00243924
INCLINATION    = 70.9229
RA_OF_ASC_NODE = 331.3137
ARG_OF_PERICENTER = 218.0534
MEAN_ANOMALY   = 141.8865

EPHEMERIS_TYPE = 0
CLASSIFICATION_TYPE = U
NORAD_CAT_ID   = 17589
ELEMENT_SET_NO = 999
REV_AT_EPOCH   = 996
BSTAR          = -.53371697E-4
MEAN_MOTION_DOT = -.148E-5
MEAN_MOTION_DDOT = 0

CCSDS_OMM_VERS = 2.0
CREATION_DATE  = 
ORIGINATOR     = 

OBJECT_NAME    = SL-16 R/B
OBJECT_ID      = 1987-027B
CENTER_NAME    = EARTH
REF_FRAME      = TEME
TIME_SYSTEM    = UTC
MEAN_ELEMENT_THEORY = SGP/SGP4

EPOCH          = 2026-03-07T07:01:04.462464
MEAN_MOTION    = 14.17165785
ECCENTRICITY   = .00035459
INCLINATION    = 71.0011
RA_OF_ASC_NODE = 281.5473
ARG_OF_PERICENTER = 148.0908
MEAN_ANOMALY   = 212.0431

EPHEMERIS_TYPE = 0
CLASSIFICATION_TYPE = U
NORAD_CAT_ID   = 17590
ELEMENT_SET_NO = 999
REV_AT_EPOCH   = 1500
BSTAR          = -.3487088E-5
MEAN_MOTION_DOT = -.55E-6
MEAN_MOTION_DDOT = 0

CCSDS_OMM_VERS = 2.0
CREATION_DATE  = 
ORIGINATOR     = 

OBJECT_NAME    = SL-14 R/B
OBJECT_ID      = 1987-038B
CENTER_NAME    = EARTH
REF_FRAME      = TEME
TIME_SYSTEM    = UTC
MEAN_ELEMENT_THEORY = SGP/SGP4

EPOCH          = 2026-03-07T03:23:13.706304
MEAN_MOTION    = 14.85366379
ECCENTRICITY   = .00194664
INCLINATION    = 82.5005
RA_OF_ASC_NODE = 299.2089
ARG_OF_PERICENTER = 168.6598
MEAN_ANOMALY   = 191.5061

EPHEMERIS_TYPE = 0
CLASSIFICATION_TYPE = U
NORAD_CAT_ID   = 17912
ELEMENT_SET_NO = 999
REV_AT_EPOCH   = 7885
BSTAR          = .55212756E-4
MEAN_MOTION_DOT = .501E-5
MEAN_MOTION_DDOT = 0

CCSDS_OMM_VERS = 2.0
CREATION_DATE  = 
ORIGINATOR     = 

OBJECT_NAME    = COSMOS 1844
OBJECT_ID      = 1987-041A
CENTER_NAME    = EARTH
REF_FRAME      = TEME
TIME_SYSTEM    = UTC
MEAN_ELEMENT_THEORY = SGP/SGP4

EPOCH          = 2026-03-07T06:41:31.101216
MEAN_MOTION    = 14.14552833
ECCENTRICITY   = .00298634
INCLINATION    = 70.8997
RA_OF_ASC_NODE = 39.2598
ARG_OF_PERICENTER = 21.3837
MEAN_ANOMALY   = 338.8525

EPHEMERIS_TYPE = 0
CLASSIFICATION_TYPE = U
NORAD_CAT_ID   = 17973
ELEMENT_SET_NO = 999
REV_AT_EPOCH   = 324
BSTAR          = -.35109789E-4
MEAN_MOTION_DOT = -.116E-5
MEAN_MOTION_DDOT = 0

CCSDS_OMM_VERS = 2.0
CREATION_DATE  = 
ORIGINATOR     = 

OBJECT_NAME    = SL-14 R/B
OBJECT_ID      = 1987-055B
CENTER_NAME    = EARTH
REF_FRAME      = TEME
TIME_SYSTEM    = UTC
MEAN_ELEMENT_THEORY = SGP/SGP4

EPOCH          = 2026-03-07T06:04:38.261568
MEAN_MOTION    = 14.85626321
ECCENTRICITY   = .00213624
INCLINATION    = 82.5030
RA_OF_ASC_NODE = 351.3269
ARG_OF_PERICENTER = 25.6858
MEAN_ANOMALY   = 334.5414

EPHEMERIS_TYPE = 0
CLASSIFICATION_TYPE = U
NORAD_CAT_ID   = 18153
ELEMENT_SET_NO = 999
REV_AT_EPOCH   = 6957
BSTAR          = .92473797E-4
MEAN_MOTION_DOT = .828E-5
MEAN_MOTION_DDOT = 0

CCSDS_OMM_VERS = 2.0
CREATION_DATE  = 
ORIGINATOR     = 

OBJECT_NAME    = COSMOS 1867
OBJECT_ID      = 1987-060A
CENTER_NAME    = EARTH
REF_FRAME      = TEME
TIME_SYSTEM    = UTC
MEAN_ELEMENT_THEORY = SGP/SGP4

EPOCH          = 2026-03-07T01:35:00.497472
MEAN_MOTION    = 14.31502571
ECCENTRICITY   = .00144668
INCLINATION    = 65.0116
RA_OF_ASC_NODE = 314.0531
ARG_OF_PERICENTER = 278.5048
MEAN_ANOMALY   = 81.4396

EPHEMERIS_TYPE = 0
CLASSIFICATION_TYPE = U
NORAD_CAT_ID   = 18187
ELEMENT_SET_NO = 999
REV_AT_EPOCH   = 1956
BSTAR          = .30865231E-4
MEAN_MOTION_DOT = -.18E-6
MEAN_MOTION_DDOT = 0

CCSDS_OMM_VERS = 2.0
CREATION_DATE  = 
ORIGINATOR     = 

OBJECT_NAME    = SL-14 R/B
OBJECT_ID      = 1988-001B
CENTER_NAME    = EARTH
REF_FRAME      = TEME
TIME_SYSTEM    = UTC
MEAN_ELEMENT_THEORY = SGP/SGP4

EPOCH          = 2026-03-07T07:34:37.236864
MEAN_MOTION    = 14.85524863
ECCENTRICITY   = .00167051
INCLINATION    = 82.5148
RA_OF_ASC_NODE = 197.5923
ARG_OF_PERICENTER = 244.1419
MEAN_ANOMALY   = 115.8075

EPHEMERIS_TYPE = 0
CLASSIFICATION_TYPE = U
NORAD_CAT_ID   = 18749
ELEMENT_SET_NO = 999
REV_AT_EPOCH   = 4167
BSTAR          = .98656939E-4
MEAN_MOTION_DOT = .877E-5
MEAN_MOTION_DDOT = 0

CCSDS_OMM_VERS = 2.0
CREATION_DATE  = 
ORIGINATOR     = 

OBJECT_NAME    = COSMOS 1933
OBJECT_ID      = 1988-020A
CENTER_NAME    = EARTH
REF_FRAME      = TEME
TIME_SYSTEM    = UTC
MEAN_ELEMENT_THEORY = SGP/SGP4

EPOCH          = 2026-03-07T00:30:57.301056
MEAN_MOTION    = 15.17951717
ECCENTRICITY   = .00036063
INCLINATION    = 82.5097
RA_OF_ASC_NODE = 253.5522
ARG_OF_PERICENTER = 191.5467
MEAN_ANOMALY   = 168.5685

EPHEMERIS_TYPE = 0
CLASSIFICATION_TYPE = U
NORAD_CAT_ID   = 18958
ELEMENT_SET_NO = 999
REV_AT_EPOCH   = 4982
BSTAR          = .22325754E-3
MEAN_MOTION_DOT = .4562E-4
MEAN_MOTION_DDOT = 0

