SL-14 R/B               
1 16792U 86046B   26066.11312297  .00000546  00000+0  60110-4 0  9991
2 16792  82.4782  82.6170 0021817 234.3727 125.5457 14.85587022126021
SL-14 R/B               
1 16882U 86055B   26066.24362099  .00000629  00000+0  69710-4 0  9997
2 16882  82.5206 128.9733 0018388 344.9028  77.0732 14.85640378119004
AJISAI (EGS)            
1 16908U 86061A   26066.31053254 -.00000089  00000+0  59003-4 0  9996
2 16908  50.0080 100.6640 0011258 280.8734 167.4995 12.44515649467701
SL-14 R/B               
1 17567U 87024B   26066.14746472  .00000524  00000+0  56951-4 0  9992
2 17567  82.5248  95.1538 0016673 269.1323  90.7983 14.86128858 87751
COSMOS 1833             
1 17589U 87027A   26066.17027101 -.00000148  00000+0 -53372-4 0  9991
2 17589  70.9229 331.3137 0024392 218.0534 141.8865 14.13055413  9969
SL-16 R/B               
1 17590U 87027B   26066.29241276 -.00000055  00000+0 -34871-5 0  9998
2 17590  71.0011 281.5473 0003545 148.0908 212.0431 14.17165785 15005
SL-14 R/B               
1 17912U 87038B   26066.14113086  .00000501  00000+0  55213-4 0  9995
2 17912  82.5005 299.2089 0019466 168.6598 191.5061 14.85366379 78853
COSMOS 1844             
1 17973U 87041A   26066.27883219 -.00000116  00000+0 -35110-4 0  9990
2 17973  70.8997  39.2598 0029863  21.3837 338.8525 14.14552833  3246
SL-14 R/B               
1 18153U 87055B   26066.25322062  .00000828  00000+0  92474-4 0  9992
2 18153  82.5030 351.3269 0021362  25.6858 334.5414 14.85626321 69574
COSMOS 1867             
1 18187U 87060A   26066.06597798 -.00000018  00000+0  30865-4 0  9992
2 18187  65.0116 314.0531 0014466 278.5048  81.4396 14.31502571 19569
SL-14 R/B               
1 18749U 88001B   26066.31570876  .00000877  00000+0  98657-4 0  9993
2 18749  82.5148 197.5923 0016705 244.1419 115.8075 14.85524863 41670
COSMOS 1933             
1 18958U 88020A   26066.02149654  .00004562  00000+0  22326-3 0  9994
2 18958  82.5097 253.5522 0003606 191.5467 168.5685 15.17951717 49822
